DMSP 5D-3 F16 (USA 172) 
1 28054U 03048A   26169.87456409 -.00000039  00000+0  33074-5 0  9995
2 28054  98.9889 193.7141 0007822 135.9254 347.7178 14.14483157169726
METEOSAT-9 (MSG-2)      
1 28912U 05049B   26169.83258696  .00000114  00000+0  00000+0 0  9995
2 28912   9.3658  54.1535 0001716 345.3182 212.9689  1.00272994  7018
DMSP 5D-3 F17 (USA 191) 
1 29522U 06050A   26169.86676742 -.00000015  00000+0  14355-4 0  9999
2 29522  98.7378 176.4025 0011114  55.0369 305.1847 14.14993112 12663
FENGYUN 3A              
1 32958U 08026A   26169.73893576  .00000063  00000+0  50315-4 0  9991
2 32958  98.6883 110.5431 0009641 119.6023 240.6115 14.19571456935625
GOES 14                 
1 35491U 09033A   26169.78020387 -.00000304  00000+0  00000+0 0  9992
2 35491   1.6951  83.0232 0001833  12.4130 233.3583  1.00110421  6609
DMSP 5D-3 F18 (USA 210) 
1 35951U 09057A   26169.83825803  .00000221  00000+0  13771-3 0  9991
2 35951  98.9038 150.6037 0009928 244.3075 115.7073 14.14897646859823
EWS-G2 (GOES 15)        
1 36411U 10008A   26169.81066573  .00000013  00000+0  00000+0 0  9996
2 36411   1.2830  82.8209 0004846  42.1667 137.5820  1.00266365 59658
COMS 1                  
1 36744U 10032A   26169.89480507  .00000077  00000+0  00000+0 0  9997
2 36744   4.8103  75.3350 0011587  11.9410 208.6105  0.99162860 51103
FENGYUN 3B              
1 37214U 10059A   26169.88154451 -.00000174  00000+0 -66693-4 0  9999
2 37214  98.9612 215.9037 0022018 179.1836 353.7103 14.14840435807662
SUOMI NPP               
1 37849U 11061A   26169.82075069  .00000055  00000+0  47130-4 0  9999
2 37849  98.7953 110.6857 0001445   2.7678 357.3506 14.19517685758675
METEOSAT-10 (MSG-3)     
1 38552U 12035B   26169.82366024 -.00000014  00000+0  00000+0 0  9993
2 38552   4.6764  61.0164 0001424   0.6983 142.1671  1.00266201 50877
METOP-B                 
1 38771U 12049A   26169.80862501  .00000080  00000+0  56286-4 0  9994
2 38771  98.6504 221.2756 0002131  15.4755 344.6487 14.21433124713494
INSAT-3D                
1 39216U 13038B   26169.77795051 -.00000346  00000+0  00000+0 0  9993
2 39216   1.9311  82.5207 0000585 321.2664 272.7790  1.00268526 47098
FENGYUN 3C              
1 39260U 13052A   26169.88132519  .00000076  00000+0  59564-4 0  9997
2 39260  98.4986 143.6784 0015157  22.9639 337.2210 14.15755438658807
METEOR-M 2              
1 40069U 14037A   26169.90535339  .00000143  00000+0  84687-4 0  9999
2 40069  98.5117 145.5831 0006668  40.2448 319.9222 14.21462242619560
HIMAWARI-8              
1 40267U 14060A   26169.78020387 -.00000282  00000+0  00000+0 0  9990
2 40267   0.0121  39.6849 0001079  52.2554 236.6131  1.00271184 42770
FENGYUN 2G              
1 40367U 14090A   26169.77205716 -.00000311  00000+0  00000+0 0  9997
2 40367   5.6437  72.7972 0003932 158.4572  53.3769  1.00271330 42017
METEOSAT-11 (MSG-4)     
1 40732U 15034A   26169.82548024  .00000055  00000+0  00000+0 0  9994
2 40732   3.2051  71.0965 0002427 345.8544 156.9086  1.00263606  7236
ELEKTRO-L 2             
1 41105U 15074A   26169.03651196 -.00000126  00000+0  00000+0 0  9991
2 41105   6.6975  70.5132 0000902 256.1704 298.2263  1.00270556 38515
SENTINEL-3A             
1 41335U 16011A   26169.82953963  .00000091  00000+0  55656-4 0  9994
2 41335  98.6249 237.1899 0001414 101.0558 259.0781 14.26733082538290
INSAT-3DR               
1 41752U 16054A   26169.79995832 -.00000083  00000+0  00000+0 0  9991
2 41752   0.1108  86.2269 0010518 187.5389 355.2200  1.00271082 35837
HIMAWARI-9              
1 41836U 16064A   26169.78020387 -.00000281  00000+0  00000+0 0  9998
2 41836   0.0160 300.5708 0000991 189.4778 198.5958  1.00270302 35229
GOES 16                 
1 41866U 16071A   26169.66027102 -.00000097  00000+0  00000+0 0  9993
2 41866   0.3460  85.5077 0000250 324.0383 350.3520  1.00271159 35116
FENGYUN 4A              
1 41882U 16077A   26169.82658019 -.00000364  00000+0  00000+0 0  9999
2 41882   2.3273  80.2573 0008695 153.5445  94.5636  1.00267645 34946
CYGFM05                 
1 41884U 16078A   26169.52615833  .00018897  00000+0  25573-3 0  9991
2 41884  34.9563 251.7231 0007102 164.6539 195.4402 15.56722595528964
CYGFM04                 
1 41885U 16078B   26169.81223935  .00022778  00000+0  25587-3 0  9990
2 41885  34.9309 217.4364 0006870 209.8486 150.1848 15.61586926529250
CYGFM02                 
1 41886U 16078C   26169.80980670  .00026479  00000+0  26401-3 0  9994
2 41886  34.9390 211.9405 0007959 211.0645 148.9611 15.64587852529421
CYGFM01                 
1 41887U 16078D   26169.57838941  .00019875  00000+0  26213-3 0  9995
2 41887  34.9392 252.4239 0006857 158.7046 201.3964 15.57403870528925
CYGFM08                 
1 41888U 16078E   26169.53548286  .00021660  00000+0  25781-3 0  9996
2 41888  34.9419 232.2513 0008477 189.9970 170.0587 15.60079570529181
CYGFM07                 
1 41890U 16078G   26169.55852597  .00021654  00000+0  25688-3 0  9993
2 41890  34.9432 220.4381 0007269 206.5978 153.4375 15.60178394529211
CYGFM03                 
1 41891U 16078H   26169.52953919  .00021660  00000+0  25707-3 0  9990
2 41891  34.9387 222.5679 0006710 194.5255 165.5278 15.60171185529181
